OBJECT_NAME,OBJECT_ID,EPOCH,MEAN_MOTION,ECCENTRICITY,INCLINATION,RA_OF_ASC_NODE,ARG_OF_PERICENTER,MEAN_ANOMALY,EPHEMERIS_TYPE,CLASSIFICATION_TYPE,NORAD_CAT_ID,ELEMENT_SET_NO,REV_AT_EPOCH,BSTAR,MEAN_MOTION_DOT,MEAN_MOTION_DDOT
CUBEBUG-2 (LO-74),2013-066AA,2026-06-26T20:13:46.093440,14.93837093,.00574429,97.8903,126.8620,357.1295,2.9586,0,U,39440,999,67843,.3894291E-3,.4208E-4,0
FUNCUBE-1 (AO-73),2013-066AE,2026-06-26T20:48:34.478208,15.09599724,.00366285,97.8271,149.5153,168.0443,192.1663,0,U,39444,999,68112,.48706649E-3,.7885E-4,0
UWE-3,2013-066AG,2026-06-26T20:10:13.067328,14.97101122,.00467941,97.8709,133.9799,288.3987,71.2149,0,U,39446,999,67902,.36186931E-3,.4205E-4,0
UNISAT-6,2014-033C,2026-06-26T22:47:05.575776,14.88291089,.00456765,97.7883,330.4899,37.8677,322.5737,0,U,40012,999,64761,.28943577E-3,.2671E-4,0
DUCHIFAT-1,2014-033M,2026-06-26T14:38:02.171040,15.66536146,.0001317,98.0448,238.1065,100.0937,260.0470,0,U,40021,999,65722,.10572E-2,.111371E-2,0
QB50P1,2014-033R,2026-06-26T23:16:21.098496,15.18403426,.00088007,98.0962,189.8021,180.7025,179.4197,0,U,40025,999,65451,.43897868E-3,.8965E-4,0
LILACSAT-2,2015-049K,2026-06-26T22:42:24.469056,15.51757568,.00064345,97.4638,215.1596,202.1528,157.9448,0,U,40908,999,59726,.3134429E-3,.18626E-3,0
FOX-1A (AO-85),2015-058D,2026-06-26T19:26:21.337152,14.91008064,.01310245,64.7748,249.0783,52.8500,308.4494,0,U,40967,999,11500,.20610904E-3,.2228E-4,0
CAS-2T & KS-1Q,2016-066G,2026-06-26T22:29:13.970400,14.44724717,.03429,98.3821,253.5619,99.9996,264.0069,0,U,41847,999,50620,.23521577E-3,.1633E-4,0
RADFXSAT (FOX-1B),2017-073E,2026-06-26T20:45:45.694944,15.12844339,.01486006,97.4694,44.8822,295.5005,63.0920,0,U,43017,999,46685,.30343911E-3,.6924E-4,0
DIWATA-2B,2018-084H,2026-06-26T23:20:54.458592,15.00496152,.00130208,98.1204,14.6084,139.4849,220.7345,0,U,43678,999,41768,.27038618E-3,.3346E-4,0
ES'HAIL 2,2018-090A,2026-06-26T22:56:24.988128,1.00270039,.0002169,0.0262,7.5952,121.3916,155.9787,0,U,43700,999,2777,0,0,0
FOX-1CLIFF (AO-95),2018-099N,2026-06-26T17:05:04.607232,15.26902666,.00071359,97.4386,237.9235,319.9595,40.1117,0,U,43770,999,41467,.4304144E-3,.11312E-3,0
ITASAT,2018-099AE,2026-06-26T16:54:35.731872,15.19167716,.00111814,97.4027,229.0263,324.7706,35.2789,0,U,43786,999,41435,.3300043E-3,.6883E-4,0
JY1SAT (JO-97),2018-099AX,2026-06-26T16:27:58.636512,15.33941851,.00050696,97.4134,240.5542,220.1283,139.9586,0,U,43803,999,41508,.50102844E-3,.16394E-3,0
UWE-4,2018-111E,2026-06-26T19:00:29.512800,15.46703354,.00044192,97.5848,106.6284,293.6884,66.3901,0,U,43880,999,41226,.64043719E-3,.32006E-3,0
TIANYAN 01,2019-093C,2026-06-26T22:33:06.604992,14.86532203,.001489,97.7532,249.9340,57.9200,302.3460,0,U,44881,999,35286,.813234E-4,.668E-5,0
RS-44 & BREEZE-KM R/B,2019-096E,2026-06-26T22:25:15.204000,12.79749023,.02184701,82.5226,333.2271,121.4708,240.7948,0,U,44909,999,30359,.2599719E-5,.14E-6,0
SALSAT,2020-068K,2026-06-26T22:57:28.471392,15.29932421,.00078227,97.8848,181.6168,266.2984,93.7361,0,U,46495,999,31685,.2860148E-3,.8212E-4,0
XW-3 (CAS-9),2021-131B,2026-06-26T23:33:24.035616,14.41366098,.00053603,98.4983,270.3183,73.9357,286.2422,0,U,50466,999,23652,.18994269E-3,.571E-5,0
GREENCUBE (IO-117),2022-080E,2026-06-26T16:16:29.555040,6.42583228,.00089846,70.1443,294.9444,287.5437,72.4241,0,U,53109,999,9267,0,-.3E-7,0
UMKA 1 (RS40S),2023-091G,2026-06-26T23:06:44.401824,15.20927314,.00142935,97.5052,236.6226,87.5395,272.7477,0,U,57172,999,16549,.30998724E-3,.6808E-4,0
CUBESX-HSE 3 (RS42S),2023-091N,2026-06-26T21:50:46.387104,15.31452456,.00115177,97.5095,243.6209,64.3283,295.9146,0,U,57178,999,16591,.47592013E-3,.14417E-3,0
MONITOR-3 (RS58S),2023-091Q,2026-06-26T22:57:06.765984,15.28032087,.00127375,97.5086,241.4744,70.5417,289.7197,0,U,57180,999,16578,.40334323E-3,.10983E-3,0
MONITOR-4 (RS57S),2023-091S,2026-06-26T22:26:10.394592,15.28116026,.00127112,97.5080,241.4246,70.8247,289.4367,0,U,57182,999,16578,.4207356E-3,.1149E-3,0
MONITOR-2 (RS39S),2023-091U,2026-06-26T22:20:14.006688,15.18996839,.00126942,97.5073,236.1506,81.7089,278.5584,0,U,57184,999,16543,.2536388E-3,.5249E-4,0
SVYATOBOR 1 (RS60S),2023-091X,2026-06-26T21:22:49.307808,15.26773441,.00104983,97.5092,241.7618,65.1884,295.0445,0,U,57187,999,16579,.33910038E-3,.8866E-4,0
VIZARD-METEO (RS38S),2023-091Z,2026-06-26T22:02:40.509024,15.36325593,.00075178,97.5095,247.5998,47.5143,312.6735,0,U,57189,999,16618,.51574467E-3,.18222E-3,0
POLYTECH-UNIVERSE 3 (RS46S),2023-091AB,2026-06-26T22:57:31.796064,15.19203654,.00170827,97.5049,235.6806,95.9629,264.3553,0,U,57191,999,16543,.271896E-3,.5675E-4,0
UTMN 2 (RS27S),2023-091AP,2026-06-26T22:08:28.809024,15.32281125,.0008618,97.5091,245.2792,54.2364,305.9678,0,U,57203,999,16603,.45056563E-3,.13989E-3,0
